NORAD_CAT_ID,OBJECT_NAME,OBJECT_TYPE,EPOCH,MEAN_MOTION,ECCENTRICITY,INCLINATION,RA_OF_ASC_NODE,ARG_OF_PERICENTER,MEAN_ANOMALY,BSTAR,MEAN_MOTION_DOT,MEAN_MOTION_DDOT,TLE_LINE0,TLE_LINE1,TLE_LINE2,SEMIMAJOR_AXIS,PERIOD,APOGEE,PERIGEE,DECAYED
55785.0,STARLINK-5818,PAYLOAD,2024-02-10 04:07:01,14.98326474,0.0002976,70.0008,317.108,267.3815,92.7003,4.2351e-05,4.12e-06,0.0,0 STARLINK-5818,1 55785U 23028AW  24041.17154574  .00000412  00000-0  42351-4 0  9996,2 55785  70.0008 317.1080 0002976 267.3815  92.7003 14.98326474 53404,6950.204,96.107,574.137,570.0,0.0
55785.0,STARLINK-5818,PAYLOAD,2024-02-10 20:08:22,14.98331751,0.0002717,70.0005,315.4246,263.0862,96.9988,-1.0173e-05,-2.14e-06,0.0,0 STARLINK-5818,1 55785U 23028AW  24041.83914431 -.00000214  00000-0 -10173-4 0  9994,2 55785  70.0005 315.4246 0002717 263.0862  96.9988 14.98331751 53495,6950.187,96.107,573.941,570.164,0.0
55785.0,STARLINK-5818,PAYLOAD,2024-02-10 21:44:30,14.98331761,0.0002719,70.0005,315.2563,263.0842,97.0008,-9.5564e-06,-2.07e-06,0.0,0 STARLINK-5818,1 55785U 23028AW  24041.90590421 -.00000207  00000-0 -95564-5 0  9991,2 55785  70.0005 315.2563 0002719 263.0842  97.0008 14.98331761 53514,6950.187,96.107,573.942,570.163,0.0
55785.0,STARLINK-5818,PAYLOAD,2024-02-11 04:09:02,14.983347,0.0002686,70.0006,314.5831,263.5174,96.5679,2.7557e-05,2.36e-06,0.0,0 STARLINK-5818,1 55785U 23028AW  24042.17294087  .00000236  00000-0  27557-4 0  9996,2 55785  70.0006 314.5831 0002686 263.5174  96.5679 14.98334700 53559,6950.178,96.107,573.91,570.177,0.0
55785.0,STARLINK-5818,PAYLOAD,2024-02-11 20:10:22,14.9833294,0.0002762,70.0005,312.9,264.4214,95.663,3.5942e-05,3.36e-06,0.0,0 STARLINK-5818,1 55785U 23028AW  24042.84054040  .00000336  00000-0  35942-4 0  9991,2 55785  70.0005 312.9000 0002762 264.4214  95.6630 14.98332940 53649,6950.184,96.107,573.968,570.129,0.0
55785.0,STARLINK-5818,PAYLOAD,2024-02-11 21:46:30,14.98332884,0.0002768,70.0005,312.7317,264.3628,95.7215,3.3983e-05,3.13e-06,0.0,0 STARLINK-5818,1 55785U 23028AW  24042.90730031  .00000313  00000-0  33983-4 0  9997,2 55785  70.0005 312.7317 0002768 264.3628  95.7215 14.98332884 53661,6950.184,96.107,573.973,570.125,0.0
55785.0,STARLINK-5818,PAYLOAD,2024-02-12 04:11:02,14.98338643,0.0002675,70.0005,312.0583,263.2077,96.8778,0.0001011,1.114e-05,0.0,0 STARLINK-5818,1 55785U 23028AW  24043.17433376  .00001114  00000-0  10110-3 0  9995,2 55785  70.0005 312.0583 0002675 263.2077  96.8778 14.98338643 53690,6950.166,96.106,573.89,570.172,0.0
55785.0,STARLINK-5818,PAYLOAD,2024-02-12 20:12:23,14.98327571,0.0002167,70.0017,310.3763,245.141,114.9524,-2.6361e-05,-4.07e-06,0.0,0 STARLINK-5818,1 55785U 23028AW  24043.84194323 -.00000407  00000-0 -26361-4 0  9997,2 55785  70.0017 310.3763 0002167 245.1410 114.9524 14.98327571 53790,6950.2,96.107,573.572,570.559,0.0
55785.0,STARLINK-5818,PAYLOAD,2024-02-12 21:48:32,14.98326359,0.000222,70.0017,310.2081,243.4097,116.6835,-2.8588e-05,-4.34e-06,0.0,0 STARLINK-5818,1 55785U 23028AW  24043.90870426 -.00000434  00000-0 -28588-4 0  9992,2 55785  70.0017 310.2081 0002220 243.4097 116.6835 14.98326359 53814,6950.204,96.107,573.612,570.526,0.0
55785.0,STARLINK-5818,PAYLOAD,2024-02-13 10:37:36,14.98326865,0.0002652,70.0003,308.8593,268.6179,91.4676,-9.6374e-05,-1.243e-05,0.0,0 STARLINK-5818,1 55785U 23028AW  24044.44278699 -.00001243  00000-0 -96374-4 0  9993,2 55785  70.0003 308.8593 0002652 268.6179  91.4676 14.98326865 53892,6950.203,96.107,573.911,570.224,0.0
55785.0,STARLINK-5818,PAYLOAD,2024-02-13 20:14:24,14.98329229,0.000274,69.9995,307.8494,262.6582,97.4266,-3.9275e-05,-5.62e-06,0.0,0 STARLINK-5818,1 55785U 23028AW  24044.84334364 -.00000562  00000-0 -39275-4 0  9999,2 55785  69.9995 307.8494 0002740 262.6582  97.4266 14.98329229 53942,6950.195,96.107,573.965,570.156,0.0
55785.0,STARLINK-5818,PAYLOAD,2024-02-13 23:26:40,14.98331323,0.0002728,69.9996,307.5133,259.6867,100.3984,-2.8622e-05,-4.34e-06,0.0,0 STARLINK-5818,1 55785U 23028AW  24044.97686189 -.00000434  00000-0 -28622-4 0  9990,2 55785  69.9996 307.5133 0002728 259.6867 100.3984 14.98331323 53970,6950.189,96.107,573.95,570.158,0.0
55785.0,STARLINK-5818,PAYLOAD,2024-02-14 10:39:37,14.9833673,0.0002816,69.9995,306.3355,274.9403,85.1434,-8.2353e-05,-1.076e-05,0.0,0 STARLINK-5818,1 55785U 23028AW  24045.44417886 -.00001076  00000-0 -82353-4 0  9993,2 55785  69.9995 306.3355 0002816 274.9403  85.1434 14.98336730 54031,6950.172,96.107,573.994,570.08,0.0
55785.0,STARLINK-5818,PAYLOAD,2024-02-14 17:04:09,14.98324761,0.0002608,70.0001,305.664,260.2154,99.8711,4.0131e-05,3.86e-06,0.0,0 STARLINK-5818,1 55785U 23028AW  24045.71122394  .00000386  00000-0  40131-4 0  9999,2 55785  70.0001 305.6640 0002608 260.2154  99.8711 14.98324761 54076,6950.209,96.107,573.887,570.261,0.0
55785.0,STARLINK-5818,PAYLOAD,2024-02-14 21:52:34,14.98323162,0.0002719,70.0007,305.1587,268.6035,91.4812,6.5564e-05,6.89e-06,0.0,0 STARLINK-5818,1 55785U 23028AW  24045.91150500  .00000689  00000-0  65564-4 0  9994,2 55785  70.0007 305.1587 0002719 268.6035  91.4812 14.98323162 54119,6950.214,96.107,573.969,570.189,0.0
55785.0,STARLINK-5818,PAYLOAD,2024-02-15 02:40:58,14.98325802,0.0002602,70.0001,304.6538,260.0323,100.0543,6.2311e-05,6.51e-06,0.0,0 STARLINK-5818,1 55785U 23028AW  24046.11178352  .00000651  00000-0  62311-4 0  9998,2 55785  70.0001 304.6538 0002602 260.0323 100.0543 14.98325802 54144,6950.206,96.107,573.879,570.262,0.0
55785.0,STARLINK-5818,PAYLOAD,2024-02-15 18:42:19,14.98321635,0.0003028,69.9995,302.9675,268.7552,91.3261,5.68e-05,5.85e-06,0.0,0 STARLINK-5818,1 55785U 23028AW  24046.77938670  .00000585  00000-0  56800-4 0  9999,2 55785  69.9995 302.9675 0003028 268.7552  91.3261 14.98321635 54237,6950.219,96.108,574.188,569.979,0.0
55785.0,STARLINK-5818,PAYLOAD,2024-02-16 10:43:39,14.98333307,0.0002754,69.9994,301.2847,273.0293,87.0551,-2.7846e-05,-4.25e-06,0.0,0 STARLINK-5818,1 55785U 23028AW  24047.44698245 -.00000425  00000-0 -27846-4 0  9998,2 55785  69.9994 301.2847 0002754 273.0293  87.0551 14.98333307 54339,6950.183,96.107,573.962,570.134,0.0
55785.0,STARLINK-5818,PAYLOAD,2024-02-16 21:56:35,14.98333012,0.0002756,69.9995,300.1059,272.0084,88.076,6.2707e-05,6.55e-06,0.0,0 STARLINK-5818,1 55785U 23028AW  24047.91429916  .00000655  00000-0  62707-4 0  9995,2 55785  69.9995 300.1059 0002756 272.0084  88.0760 14.98333012 54417,6950.184,96.107,573.964,570.133,0.0
55785.0,STARLINK-5818,PAYLOAD,2024-02-17 02:44:59,14.98340401,0.0002845,69.9993,299.6013,270.7499,89.3334,6.5338e-05,6.87e-06,0.0,0 STARLINK-5818,1 55785U 23028AW  24048.11457327  .00000687  00000-0  65338-4 0  9993,2 55785  69.9993 299.6013 0002845 270.7499  89.3334 14.98340401 54434,6950.161,96.106,574.003,570.048,0.0
55785.0,STARLINK-5818,PAYLOAD,2024-02-17 20:22:28,14.98324917,0.0002724,69.9993,297.7495,272.4673,87.6174,4.137e-06,-4.4e-07,0.0,0 STARLINK-5818,1 55785U 23028AW  24048.84894421 -.00000044  00000-0  41370-5 0  9992,2 55785  69.9993 297.7495 0002724 272.4673  87.6174 14.98324917 54556,6950.209,96.107,573.967,570.18,0.0
55785.0,STARLINK-5818,PAYLOAD,2024-02-18 09:11:33,14.98327921,0.0002785,69.9992,296.4033,272.6505,87.4335,-2.5163e-05,-3.93e-06,0.0,0 STARLINK-5818,1 55785U 23028AW  24049.38302365 -.00000393  00000-0 -25163-4 0  9992,2 55785  69.9992 296.4033 0002785 272.6505  87.4335 14.98327921 54636,6950.199,96.107,574.0,570.129,0.0
55785.0,STARLINK-5818,PAYLOAD,2024-02-18 20:24:29,14.98333268,0.0002762,69.999,295.2251,272.6053,87.479,-4.7504e-05,-6.6e-06,0.0,0 STARLINK-5818,1 55785U 23028AW  24049.85034057 -.00000660  00000-0 -47504-4 0  9994,2 55785  69.9990 295.2251 0002762 272.6053  87.4790 14.98333268 54698,6950.183,96.107,573.967,570.128,0.0
55785.0,STARLINK-5818,PAYLOAD,2024-02-18 22:00:37,14.98330891,0.0002887,69.9987,295.0562,272.9809,87.102,-5.9924e-05,-8.08e-06,0.0,0 STARLINK-5818,1 55785U 23028AW  24049.91710223 -.00000808  00000-0 -59924-4 0  9990,2 55785  69.9987 295.0562 0002887 272.9809  87.1020 14.98330891 54712,6950.19,96.107,574.062,570.049,0.0
55785.0,STARLINK-5818,PAYLOAD,2024-02-19 09:13:33,14.98332667,0.0002807,69.9986,293.8784,266.2056,93.8782,-5.9823e-05,-8.07e-06,0.0,0 STARLINK-5818,1 55785U 23028AW  24050.38441912 -.00000807  00000-0 -59823-4 0  9996,2 55785  69.9986 293.8784 0002807 266.2056  93.8782 14.98332667 54784,6950.185,96.107,574.001,570.099,0.0
55785.0,STARLINK-5818,PAYLOAD,2024-02-19 20:26:30,14.9832502,0.0002792,69.9986,292.7002,270.281,89.803,1.1673e-05,4.6e-07,0.0,0 STARLINK-5818,1 55785U 23028AW  24050.85174261  .00000046  00000-0  11673-4 0  9992,2 55785  69.9986 292.7002 0002792 270.2810  89.8030 14.98325020 54844,6950.208,96.107,574.014,570.133,0.0
55785.0,STARLINK-5818,PAYLOAD,2024-02-19 22:02:38,14.98325434,0.0002787,69.9985,292.5319,269.961,90.1229,1.5704e-05,9.4e-07,0.0,0 STARLINK-5818,1 55785U 23028AW  24050.91850235  .00000094  00000-0  15704-4 0  9993,2 55785  69.9985 292.5319 0002787 269.9610  90.1229 14.98325434 54865,6950.207,96.107,574.009,570.135,0.0
55785.0,STARLINK-5818,PAYLOAD,2024-02-20 09:15:35,14.98327503,0.0002827,69.9984,291.3536,270.4044,89.6791,1.4275e-05,7.7e-07,0.0,0 STARLINK-5818,1 55785U 23028AW  24051.38582198  .00000077  00000-0  14275-4 0  9998,2 55785  69.9984 291.3536 0002827 270.4044  89.6791 14.98327503 54939,6950.201,96.107,574.03,570.101,0.0
55785.0,STARLINK-5818,PAYLOAD,2024-02-20 22:04:39,14.98331089,0.0002886,69.9982,290.0065,269.8116,90.2712,-2.3573e-05,-3.74e-06,0.0,0 STARLINK-5818,1 55785U 23028AW  24051.91990077 -.00000374  00000-0 -23573-4 0  9999,2 55785  69.9982 290.0065 0002886 269.8116  90.2712 14.98331089 55012,6950.19,96.107,574.06,570.049,0.0
55785.0,STARLINK-5818,PAYLOAD,2024-02-21 01:16:55,14.98332701,0.0002869,69.9983,289.6699,269.8463,90.2367,-3.6433e-06,-1.36e-06,0.0,0 STARLINK-5818,1 55785U 23028AW  24052.05341899 -.00000136  00000-0 -36433-5 0  9993,2 55785  69.9983 289.6699 0002869 269.8463  90.2367 14.98332701 55025,6950.185,96.107,574.044,570.056,0.0
